OBJECT_NAME,OBJECT_ID,EPOCH,MEAN_MOTION,ECCENTRICITY,INCLINATION,RA_OF_ASC_NODE,ARG_OF_PERICENTER,MEAN_ANOMALY,EPHEMERIS_TYPE,CLASSIFICATION_TYPE,NORAD_CAT_ID,ELEMENT_SET_NO,REV_AT_EPOCH,BSTAR,MEAN_MOTION_DOT,MEAN_MOTION_DDOT
S-NET A,2018-014J,2026-06-25T23:18:45.795168,15.16756821,.000836,97.5376,81.9043,357.0429,3.0753,0,U,43188,999,46009,.27568E-3,.5346E-4,0
S-NET C,2018-014K,2026-06-26T04:27:50.380992,15.16713923,.0009415,97.5389,82.1941,346.9277,13.1711,0,U,43189,999,45867,.27034E-3,.5236E-4,0
PAZ,2018-020A,2026-06-26T04:43:26.092992,15.19150238,.0001699,97.4448,184.4543,87.2862,272.8567,0,U,43215,999,46237,.89451E-4,.1812E-4,0
GOES 17,2018-022A,2026-06-26T04:35:51.819072,1.00272828,.000068,0.9597,85.5608,23.4402,144.7721,0,U,43226,999,3051,0,-.172E-5,0
LKW-4,2018-025A,2026-06-25T23:32:13.217856,15.62950759,.0002297,97.6343,348.5475,248.3343,111.7670,0,U,43236,999,46140,.51137E-3,.46334E-3,0
ZHUHAI-1 OVS-02,2018-040B,2026-06-26T05:17:29.992128,15.25137707,.0002829,97.0385,193.9142,189.1359,170.9829,0,U,43440,999,45409,.3076E-3,.7643E-4,0
ZHUHAI-1 OHS-02,2018-040C,2026-06-26T04:48:42.475104,15.26004599,.0009185,97.0370,200.8441,185.7530,174.3606,0,U,43441,999,11565,.35289E-3,.9021E-4,0
GAOFEN-6,2018-048A,2026-06-25T19:30:44.521056,14.76423510,.0011702,98.0567,239.4730,138.2342,221.9762,0,U,43484,999,43466,.48573E-4,.286E-5,0
LUOJIA-1 01,2018-048B,2026-06-26T04:32:44.161728,14.87319085,.0010551,97.8107,255.2331,91.7097,268.5328,0,U,43485,999,43555,.34189E-3,.3035E-4,0
PAKTES 1A,2018-056A,2026-06-26T05:10:43.669344,14.99131958,.0021282,98.1282,334.0878,78.3164,282.0444,0,U,43529,999,43327,.15553E-3,.1834E-4,0
PRSS-1,2018-056B,2026-06-26T04:04:26.344704,14.82002632,.000152,97.7820,244.7909,75.1159,285.0222,0,U,43530,999,42976,.14465E-3,.1097E-4,0
HAIYANG-1C,2018-068A,2026-06-26T04:12:09.759744,14.34181307,.0012071,98.5191,249.3533,70.3373,289.9113,0,U,43609,999,40837,.52237E-4,.103E-5,0
SSTL S1-4,2018-071A,2026-06-26T04:24:39.930336,14.96172992,.0001782,97.5020,48.4231,114.4922,245.6486,0,U,43618,999,42428,.9989E-4,.1071E-4,0
HAIYANG-2B,2018-081A,2026-06-26T03:47:14.707104,13.79307065,.0000037,99.3287,185.7786,158.9538,201.1615,0,U,43655,999,38616,-.13412E-3,-.182E-5,0
CFOSAT,2018-083A,2026-06-26T04:48:10.630656,15.16426584,.0002366,97.3604,181.4649,85.3323,274.8181,0,U,43662,999,42380,.17726E-3,.3381E-4,0
TEN-KOH,2018-084G,2026-06-26T02:40:38.082432,15.02970141,.0011292,98.0758,9.8520,88.8739,271.3778,0,U,43677,999,41750,.12922E-3,.1672E-4,0
DIWATA-2B,2018-084H,2026-06-26T04:08:34.521792,15.00488746,.0013017,98.1205,13.7726,141.9692,218.2452,0,U,43678,999,41756,.184E-3,.2255E-4,0
STARS-AO,2018-084J,2026-06-26T04:12:53.580096,15.17145276,.0003434,98.0499,31.7014,118.4577,241.7001,0,U,43679,999,41883,.32339E-3,.6343E-4,0
AUTCUBE 2,2018-084K,2026-06-26T02:37:32.062368,15.10147299,.000934,98.0706,23.7569,22.2715,337.8917,0,U,43681,999,41827,.25755E-3,.4134E-4,0
METOP-C,2018-087A,2026-06-26T03:33:08.502048,14.21514306,.0002031,98.6640,236.5877,118.0932,242.0451,0,U,43689,999,39610,.5648E-4,.8E-6,0
ES'HAIL 2,2018-090A,2026-06-25T16:08:40.198272,1.00274106,.0002207,0.0185,341.0996,148.5722,52.1049,0,U,43700,999,2776,0,.155E-5,0
MOHAMMED VI-B,2018-095A,2026-06-26T04:28:27.354144,14.77059735,.00015,97.9556,249.3880,98.2201,261.9179,0,U,43717,999,40951,.13675E-3,.914E-5,0
HYSIS,2018-096A,2026-06-26T03:27:28.634688,14.78632868,.000183,97.9839,243.8220,94.4630,265.6790,0,U,43719,999,40874,.16682E-3,.117E-4,0
COSMOS 2530 (RODNIK-S 16),2018-097A,2026-06-26T03:37:21.661824,12.42881357,.0019838,82.5136,216.7176,20.6282,339.5594,0,U,43751,999,34340,.43975E-3,.71E-6,0
COSMOS 2531 (RODNIK-S 17),2018-097B,2026-06-26T04:09:07.235424,12.42912606,.0017427,82.5182,217.7655,39.6435,320.5916,0,U,43752,999,34342,.15456E-3,.31E-6,0
COSMOS 2532 (RODNIK-S 18),2018-097C,2026-06-26T04:49:51.869856,12.42909597,.001884,82.5125,216.5298,41.3953,318.8550,0,U,43753,999,34339,-.40482E-3,-.46E-6,0
MINXSS-2,2018-099A,2026-06-26T03:30:59.626944,15.47486580,.0007395,97.4536,253.6954,221.2021,138.8672,0,U,43758,999,41551,.79635E-3,.40986E-3,0
SIRION PATHFINDER-2,2018-099B,2026-06-26T02:25:06.615264,15.14622553,.0007093,97.4252,225.9461,266.8901,93.1519,0,U,43759,999,41397,.2909E-3,.5312E-4,0
AISTECHSAT 2,2018-099L,2026-06-25T16:08:28.301856,15.15527965,.0003012,97.4292,224.5206,264.4362,95.6527,0,U,43768,999,41356,.3521E-3,.6609E-4,0
FOX-1CLIFF (AO-95),2018-099N,2026-06-25T15:55:09.564096,15.26877140,.0007199,97.4386,236.8787,324.2566,35.8190,0,U,43770,999,41451,.53097E-3,.13967E-3,0
