S-NET A                 
1 43188U 18014J   26176.97136337  .00005346  00000+0  27568-3 0  9997
2 43188  97.5376  81.9043 0008360 357.0429   3.0753 15.16756821460094
S-NET C                 
1 43189U 18014K   26177.18599978  .00005236  00000+0  27034-3 0  9992
2 43189  97.5389  82.1941 0009415 346.9277  13.1711 15.16713923458672
PAZ                     
1 43215U 18020A   26177.19682978  .00001812  00000+0  89451-4 0  9991
2 43215  97.4448 184.4543 0001699  87.2862 272.8567 15.19150238462374
GOES 17                 
1 43226U 18022A   26177.19157198 -.00000172  00000+0  00000+0 0  9993
2 43226   0.9597  85.5608 0000680  23.4402 144.7721  1.00272828 30515
LKW-4                   
1 43236U 18025A   26176.98070854  .00046334  00000+0  51137-3 0  9996
2 43236  97.6343 348.5475 0002297 248.3343 111.7670 15.62950759461402
ZHUHAI-1 OVS-02         
1 43440U 18040B   26177.22048602  .00007643  00000+0  30760-3 0  9993
2 43440  97.0385 193.9142 0002829 189.1359 170.9829 15.25137707454091
ZHUHAI-1 OHS-02         
1 43441U 18040C   26177.20049161  .00009021  00000+0  35289-3 0  9996
2 43441  97.0370 200.8441 0009185 185.7530 174.3606 15.26004599115651
GAOFEN-6                
1 43484U 18048A   26176.81301529  .00000286  00000+0  48573-4 0  9991
2 43484  98.0567 239.4730 0011702 138.2342 221.9762 14.76423510434667
LUOJIA-1 01             
1 43485U 18048B   26177.18940002  .00003035  00000+0  34189-3 0  9990
2 43485  97.8107 255.2331 0010551  91.7097 268.5328 14.87319085435556
PAKTES 1A               
1 43529U 18056A   26177.21578321  .00001834  00000+0  15553-3 0  9992
2 43529  98.1282 334.0878 0021282  78.3164 282.0444 14.99131958433275
PRSS-1                  
1 43530U 18056B   26177.16974936  .00001097  00000+0  14465-3 0  9992
2 43530  97.7820 244.7909 0001520  75.1159 285.0222 14.82002632429768
HAIYANG-1C              
1 43609U 18068A   26177.17511296  .00000103  00000+0  52237-4 0  9996
2 43609  98.5191 249.3533 0012071  70.3373 289.9113 14.34181307408377
SSTL S1-4               
1 43618U 18071A   26177.18379549  .00001071  00000+0  99890-4 0  9995
2 43618  97.5020  48.4231 0001782 114.4922 245.6486 14.96172992424285
HAIYANG-2B              
1 43655U 18081A   26177.15780911 -.00000182  00000+0 -13412-3 0  9992
2 43655  99.3287 185.7786 0000037 158.9538 201.1615 13.79307065386165
CFOSAT                  
1 43662U 18083A   26177.20012304  .00003381  00000+0  17726-3 0  9996
2 43662  97.3604 181.4649 0002366  85.3323 274.8181 15.16426584423806
TEN-KOH                 
1 43677U 18084G   26177.11155188  .00001672  00000+0  12922-3 0  9995
2 43677  98.0758   9.8520 0011292  88.8739 271.3778 15.02970141417500
DIWATA-2B               
1 43678U 18084H   26177.17262178  .00002255  00000+0  18400-3 0  9995
2 43678  98.1205  13.7726 0013017 141.9692 218.2452 15.00488746417565
STARS-AO                
1 43679U 18084J   26177.17562014  .00006343  00000+0  32339-3 0  9997
2 43679  98.0499  31.7014 0003434 118.4577 241.7001 15.17145276418831
AUTCUBE 2               
1 43681U 18084K   26177.10939887  .00004134  00000+0  25755-3 0  9999
2 43681  98.0706  23.7569 0009340  22.2715 337.8917 15.10147299418270
METOP-C                 
1 43689U 18087A   26177.14801507  .00000080  00000+0  56480-4 0  9997
2 43689  98.6640 236.5877 0002031 118.0932 242.0451 14.21514306396107
ES'HAIL 2               
1 43700U 18090A   26176.67268748  .00000155  00000+0  00000+0 0  9991
2 43700   0.0185 341.0996 0002207 148.5722  52.1049  1.00274106 27766
MOHAMMED VI-B           
1 43717U 18095A   26177.18642771  .00000914  00000+0  13675-3 0  9992
2 43717  97.9556 249.3880 0001500  98.2201 261.9179 14.77059735409519
HYSIS                   
1 43719U 18096A   26177.14408142  .00001170  00000+0  16682-3 0  9999
2 43719  97.9839 243.8220 0001830  94.4630 265.6790 14.78632868408741
COSMOS 2530 (RODNIK-S *)
1 43751U 18097A   26177.15094516  .00000071  00000+0  43975-3 0  9997
2 43751  82.5136 216.7176 0019838  20.6282 339.5594 12.42881357343409
COSMOS 2531 (RODNIK-S *)
1 43752U 18097B   26177.17300041  .00000031  00000+0  15456-3 0  9992
2 43752  82.5182 217.7655 0017427  39.6435 320.5916 12.42912606343428
COSMOS 2532 (RODNIK-S *)
1 43753U 18097C   26177.20129479 -.00000046  00000+0 -40482-3 0  9996
2 43753  82.5125 216.5298 0018840  41.3953 318.8550 12.42909597343396
MINXSS-2                
1 43758U 18099A   26177.14652346  .00040986  00000+0  79635-3 0  9997
2 43758  97.4536 253.6954 0007395 221.2021 138.8672 15.47486580415510
SIRION PATHFINDER-2     
1 43759U 18099B   26177.10077101  .00005312  00000+0  29090-3 0  9998
2 43759  97.4252 225.9461 0007093 266.8901  93.1519 15.14622553413975
AISTECHSAT 2            
1 43768U 18099L   26176.67254979  .00006609  00000+0  35210-3 0  9990
2 43768  97.4292 224.5206 0003012 264.4362  95.6527 15.15527965413566
FOX-1CLIFF (AO-95)      
1 43770U 18099N   26176.66330514  .00013967  00000+0  53097-3 0  9990
2 43770  97.4386 236.8787 0007199 324.2566  35.8190 15.26877140414517
